QIANFAN-81              
1 63167U 25046J   26001.56008980  .00000294  00000+0  43600-3 0  9995
2 63167  88.9780 317.8218 0016733  64.9446 295.3440 13.51010169 50164
QIANFAN-82              
1 63168U 25046K   26001.59453774  .00000284  00000+0  42014-3 0  9991
2 63168  88.9780 317.8623 0014894  71.8334 288.4437 13.50983107 50152
QIANFAN-83              
1 63169U 25046L   26001.60838487  .00000366  00000+0  45926-3 0  9998
2 63169  88.9781 317.5982 0016106  58.0735 302.1986 13.61983163 50303
QIANFAN-84              
1 63170U 25046M   26001.62218676  .00000276  00000+0  40837-3 0  9990
2 63170  88.9780 317.9920 0017853  68.5583 291.7470 13.50993296 50089
QIANFAN-85              
1 63171U 25046N   26001.61908799  .00000291  00000+0  43185-3 0  9998
2 63171  88.9780 317.8640 0015246  70.6875 289.5924 13.50984201 50153
QIANFAN-86              
1 63172U 25046P   26001.55335691  .00000287  00000+0  42620-3 0  9995
2 63172  88.9782 317.7334 0013137  74.6126 285.6476 13.50983724 50221
QIANFAN-87              
1 63173U 25046Q   26001.59878345  .00000292  00000+0  43359-3 0  9994
2 63173  88.9778 317.8396 0013771  70.4948 289.7689 13.50981237 50167
QIANFAN-88              
1 63174U 25046R   26001.61501944  .00000288  00000+0  42690-3 0  9998
2 63174  88.9781 317.7930 0014186  77.2682 283.0054 13.50987881 50193
